STARLINK-1585
1 46117U 20057A   26090.62042324  .00691823  23391-3  11902-2 0  9998
2 46117  53.0329 135.1287 0007525  23.9915 336.1464 16.01799712310530
STARLINK-1625
1 46131U 20057Q   26090.59958777  .00719927  25440-3  12291-2 0  9993
2 46131  53.0377 136.3170 0009025   4.0647 356.0455 16.01906000311770
STARLINK-32272
1 60735U 24152R   26090.85686009  .00678816  22387-3  11748-2 0  9998
2 60735  53.1328 144.5543 0016618 359.3481   0.7525 16.01469818 90491
